TOMORROW-S2             
1 60485U 24149T   26068.75188364  .00008133  00000+0  27683-3 0  9990
2 60485  97.3857 150.0385 0001648 234.3331 125.7757 15.30674935 86869
STARLINK-35767          
1 67058U 25294AE  26068.28181702  .00036113  00000+0  13143-2 0  9996
2 67058  43.0039  40.6469 0004230 243.6710 116.3707 15.27600826 14735
